start=new Date('2022-07-24T00:00:00.000Z').valueOf();
sats=[{"DECAY_DATE":null,"OBJECT_NAME":"STARLINK-2142","CLASSIFICATION_TYPE":"U","LAUNCH_DATE":"2021-03-04","ELEMENT_SET_NO":"999","OBJECT_TYPE":"PAYLOAD","SEMIMAJOR_AXIS":"6925.373","COUNTRY_CODE":"US","GP_ID":"208735336","OBJECT_ID":"2021-017L","INCLINATION":"53.0567","ARG_OF_PERICENTER":"111.5457","NORAD_CAT_ID":"47732","RCS_SIZE":"LARGE","MEAN_MOTION_DDOT":"0.0000000000000","PERIAPSIS":"546.306","CENTER_NAME":"EARTH","EPHEMERIS_TYPE":"0","TLE_LINE2":"2 47732  53.0567 315.3098 0001347 111.5457 248.5676 15.06391877 79202","MEAN_ELEMENT_THEORY":"SGP4","PERIOD":"95.593","MEAN_ANOMALY":"248.5676","TLE_LINE1":"1 47732U 21017L   22204.62639082  .00004387  00000-0  31332-3 0  9997","RA_OF_ASC_NODE":"315.3098","ECCENTRICITY":"0.00013470","MEAN_MOTION_DOT":"0.00004387","TIME_SYSTEM":"UTC","BSTAR":"0.00031332000000","MEAN_MOTION":"15.06391877","REV_AT_EPOCH":"7920","SITE":"AFETR","EPOCH":"2022-07-23T15:02:00.166848","REF_FRAME":"TEME","FILE":"3520602","APOAPSIS":"548.171"},{"ARG_OF_PERICENTER":"71.8085","NORAD_CAT_ID":"47733","RCS_SIZE":"LARGE","OBJECT_ID":"2021-017M","INCLINATION":"53.0572","COUNTRY_CODE":"US","GP_ID":"208735586","SEMIMAJOR_AXIS":"6925.369","ELEMENT_SET_NO":"999","OBJECT_TYPE":"PAYLOAD","LAUNCH_DATE":"2021-03-04","CLASSIFICATION_TYPE":"U","OBJECT_NAME":"STARLINK-2143","DECAY_DATE":null,"APOAPSIS":"548.270","FILE":"3520602","REF_FRAME":"TEME","EPOCH":"2022-07-23T20:10:28.045632","SITE":"AFETR","REV_AT_EPOCH":"7795","MEAN_MOTION":"15.06393400","TIME_SYSTEM":"UTC","BSTAR":"0.00005705300000","ECCENTRICITY":"0.00014960","MEAN_MOTION_DOT":"0.00000568","MEAN_ANOMALY":"288.3067","RA_OF_ASC_NODE":"49.0959","TLE_LINE1":"1 47733U 21017M   22204.84060238  .00000568  00000-0  57053-4 0  9999","TLE_LINE2":"2 47733  53.0572  49.0959 0001496  71.8085 288.3067 15.06393400 77956","MEAN_ELEMENT_THEORY":"SGP4","PERIOD":"95.593","EPHEMERIS_TYPE":"0","MEAN_MOTION_DDOT":"0.0000000000000","PERIAPSIS":"546.198","CENTER_NAME":"EARTH"},{"OBJECT_TYPE":"PAYLOAD","ELEMENT_SET_NO":"999","LAUNCH_DATE":"2021-03-04","OBJECT_NAME":"STARLINK-2144","DECAY_DATE":null,"CLASSIFICATION_TYPE":"U","INCLINATION":"53.0549","OBJECT_ID":"2021-017N","RCS_SIZE":"LARGE","NORAD_CAT_ID":"47734","ARG_OF_PERICENTER":"88.1380","GP_ID":"208736837","COUNTRY_CODE":"US","SEMIMAJOR_AXIS":"6925.351","MEAN_MOTION_DOT":"0.00002733","ECCENTRICITY":"0.00013130","EPHEMERIS_TYPE":"0","CENTER_NAME":"EARTH","PERIAPSIS":"546.306","MEAN_MOTION_DDOT":"0.0000000000000","RA_OF_ASC_NODE":"39.0151","TLE_LINE1":"1 47734U 21017N   22204.85995792  .00002733  00000-0  20228-3 0  9992","MEAN_ANOMALY":"271.9759","PERIOD":"95.592","MEAN_ELEMENT_THEORY":"SGP4","TLE_LINE2":"2 47734  53.0549  39.0151 0001313  88.1380 271.9759 15.06399357 78067","APOAPSIS":"548.125","FILE":"3520602","REF_FRAME":"TEME","MEAN_MOTION":"15.06399357","TIME_SYSTEM":"UTC","BSTAR":"0.00020228000000","EPOCH":"2022-07-23T20:38:20.364288","SITE":"AFETR","REV_AT_EPOCH":"7806"},{"SEMIMAJOR_AXIS":"6925.361","COUNTRY_CODE":"US","GP_ID":"208736588","OBJECT_ID":"2021-017P","INCLINATION":"53.0551","ARG_OF_PERICENTER":"67.1788","RCS_SIZE":"LARGE","NORAD_CAT_ID":"47735","DECAY_DATE":null,"OBJECT_NAME":"STARLINK-2146","CLASSIFICATION_TYPE":"U","LAUNCH_DATE":"2021-03-04","ELEMENT_SET_NO":"999","OBJECT_TYPE":"PAYLOAD","TIME_SYSTEM":"UTC","BSTAR":"0.00007863700000","MEAN_MOTION":"15.06396087","SITE":"AFETR","REV_AT_EPOCH":"7907","EPOCH":"2022-07-23T17:50:30.478848","REF_FRAME":"TEME","APOAPSIS":"548.149","FILE":"3520602","PERIAPSIS":"546.302","MEAN_MOTION_DDOT":"0.0000000000000","CENTER_NAME":"EARTH","EPHEMERIS_TYPE":"0","TLE_LINE2":"2 47735  53.0551 324.7075 0001333  67.1788 292.9342 15.06396087 79071","PERIOD":"95.592","MEAN_ELEMENT_THEORY":"SGP4","MEAN_ANOMALY":"292.9342","TLE_LINE1":"1 47735U 21017P   22204.74340832  .00000890  00000-0  78637-4 0  9990","RA_OF_ASC_NODE":"324.7075","ECCENTRICITY":"0.00013330","MEAN_MOTION_DOT":"0.00000890"},{"OBJECT_TYPE":"PAYLOAD","ELEMENT_SET_NO":"999","LAUNCH_DATE":"2021-03-04","OBJECT_NAME":"STARLINK-2147","DECAY_DATE":null,"CLASSIFICATION_TYPE":"U","INCLINATION":"53.0547","OBJECT_ID":"2021-017Q","NORAD_CAT_ID":"47736","RCS_SIZE":"LARGE","ARG_OF_PERICENTER":"71.0560","GP_ID":"208735836","COUNTRY_CODE":"US","SEMIMAJOR_AXIS":"6925.369","MEAN_MOTION_DOT":"0.00000469","ECCENTRICITY":"0.00014190","EPHEMERIS_TYPE":"0","CENTER_NAME":"EARTH","MEAN_MOTION_DDOT":"0.0000000000000","PERIAPSIS":"546.252","RA_OF_ASC_NODE":"29.1629","TLE_LINE1":"1 47736U 21017Q   22204.82771033  .00000469  00000-0  50392-4 0  9991","MEAN_ANOMALY":"289.0582","MEAN_ELEMENT_THEORY":"SGP4","PERIOD":"95.593","TLE_LINE2":"2 47736  53.0547  29.1629 0001419  71.0560 289.0582 15.06393259 78233","FILE":"3520602","APOAPSIS":"548.217","REF_FRAME":"TEME","MEAN_MOTION":"15.06393259","BSTAR":"0.00005039200000","TIME_SYSTEM":"UTC","EPOCH":"2022-07-23T19:51:54.172512","SITE":"AFETR","REV_AT_EPOCH":"7823"},{"COUNTRY_CODE":"US","GP_ID":"208736086","SEMIMAJOR_AXIS":"6852.831","OBJECT_ID":"2021-017R","INCLINATION":"53.0534","ARG_OF_PERICENTER":"49.9268","NORAD_CAT_ID":"47737","RCS_SIZE":"LARGE","OBJECT_NAME":"STARLINK-2148","DECAY_DATE":null,"CLASSIFICATION_TYPE":"U","ELEMENT_SET_NO":"999","OBJECT_TYPE":"PAYLOAD","LAUNCH_DATE":"2021-03-04","MEAN_MOTION":"15.30374467","BSTAR":"0.00029040000000","TIME_SYSTEM":"UTC","EPOCH":"2022-07-23T18:55:46.837056","SITE":"AFETR","REV_AT_EPOCH":"7949","APOAPSIS":"476.028","FILE":"3520602","REF_FRAME":"TEME","EPHEMERIS_TYPE":"0","MEAN_MOTION_DDOT":"0.0000000000000","PERIAPSIS":"473.365","CENTER_NAME":"EARTH","MEAN_ANOMALY":"310.1902","TLE_LINE1":"1 47737U 21017R   22204.78873654  .00008297  00000-0  29040-3 0  9991","RA_OF_ASC_NODE":"299.2201","TLE_LINE2":"2 47737  53.0534 299.2201 0001943  49.9268 310.1902 15.30374467 79495","PERIOD":"94.095","MEAN_ELEMENT_THEORY":"SGP4","ECCENTRICITY":"0.00019430","MEAN_MOTION_DOT":"0.00008297"},{"CLASSIFICATION_TYPE":"U","DECAY_DATE":null,"OBJECT_NAME":"STARLINK-2149","LAUNCH_DATE":"2021-03-04","OBJECT_TYPE":"PAYLOAD","ELEMENT_SET_NO":"999","SEMIMAJOR_AXIS":"6925.364","GP_ID":"208736338","COUNTRY_CODE":"US","NORAD_CAT_ID":"47738","RCS_SIZE":"LARGE","ARG_OF_PERICENTER":"68.3512","INCLINATION":"53.0535","OBJECT_ID":"2021-017S","MEAN_ELEMENT_THEORY":"SGP4","PERIOD":"95.592","TLE_LINE2":"2 47738  53.0535  29.5353 0001288  68.3512 291.7614 15.06394986 78223","RA_OF_ASC_NODE":"29.5353","TLE_LINE1":"1 47738U 21017S   22204.80194435  .00001854  00000-0  14337-3 0  9993","MEAN_ANOMALY":"291.7614","CENTER_NAME":"EARTH","PERIAPSIS":"546.337","MEAN_MOTION_DDOT":"0.0000000000000","EPHEMERIS_TYPE":"0","MEAN_MOTION_DOT":"0.00001854","ECCENTRICITY":"0.00012880","SITE":"AFETR","REV_AT_EPOCH":"7822","EPOCH":"2022-07-23T19:14:47.991840","BSTAR":"0.00014337000000","TIME_SYSTEM":"UTC","MEAN_MOTION":"15.06394986","REF_FRAME":"TEME","FILE":"3520602","APOAPSIS":"548.121"},{"ECCENTRICITY":"0.00014810","MEAN_MOTION_DOT":"-0.00000603","MEAN_MOTION_DDOT":"0.0000000000000","PERIAPSIS":"546.198","CENTER_NAME":"EARTH","EPHEMERIS_TYPE":"0","TLE_LINE2":"2 47739  53.0538  53.8909 0001481  72.0886 288.0265 15.06396786 77898","PERIOD":"95.592","MEAN_ELEMENT_THEORY":"SGP4","MEAN_ANOMALY":"288.0265","RA_OF_ASC_NODE":"53.8909","TLE_LINE1":"1 47739U 21017T   22204.88990549 -.00000603  00000-0 -21611-4 0  9999","REF_FRAME":"TEME","APOAPSIS":"548.249","FILE":"3520602","TIME_SYSTEM":"UTC","BSTAR":"-0.00002161100000","MEAN_MOTION":"15.06396786","REV_AT_EPOCH":"7789","SITE":"AFETR","EPOCH":"2022-07-23T21:21:27.834336","LAUNCH_DATE":"2021-03-04","ELEMENT_SET_NO":"999","OBJECT_TYPE":"PAYLOAD","DECAY_DATE":null,"OBJECT_NAME":"STARLINK-2150","CLASSIFICATION_TYPE":"U","OBJECT_ID":"2021-017T","INCLINATION":"53.0538","ARG_OF_PERICENTER":"72.0886","NORAD_CAT_ID":"47739","RCS_SIZE":"LARGE","SEMIMAJOR_AXIS":"6925.358","COUNTRY_CODE":"US","GP_ID":"208737088"},{"NORAD_CAT_ID":"47740","RCS_SIZE":"LARGE","ARG_OF_PERICENTER":"74.7284","INCLINATION":"53.0574","OBJECT_ID":"2021-017U","SEMIMAJOR_AXIS":"6925.386","GP_ID":"208735337","COUNTRY_CODE":"US","LAUNCH_DATE":"2021-03-04","OBJECT_TYPE":"PAYLOAD","ELEMENT_SET_NO":"999","CLASSIFICATION_TYPE":"U","DECAY_DATE":null,"OBJECT_NAME":"STARLINK-2152","REF_FRAME":"TEME","APOAPSIS":"548.278","FILE":"3520602","REV_AT_EPOCH":"7808","SITE":"AFETR","EPOCH":"2022-07-23T19:18:43.916544","TIME_SYSTEM":"UTC","BSTAR":"0.00022725000000","MEAN_MOTION":"15.06387762","MEAN_MOTION_DOT":"0.00003104","ECCENTRICITY":"0.00014830","MEAN_ELEMENT_THEORY":"SGP4","PERIOD":"95.593","TLE_LINE2":"2 47740  53.0574  39.2624 0001483  74.7284 285.3869 15.06387762 78081","RA_OF_ASC_NODE":"39.2624","TLE_LINE1":"1 47740U 21017U   22204.80467496  .00003104  00000-0  22725-3 0  9996","MEAN_ANOMALY":"285.3869","CENTER_NAME":"EARTH","PERIAPSIS":"546.224","MEAN_MOTION_DDOT":"0.0000000000000","EPHEMERIS_TYPE":"0"},{"MEAN_MOTION":"15.06399177","TIME_SYSTEM":"UTC","BSTAR":"0.00017087000000","EPOCH":"2022-07-23T19:39:56.668896","SITE":"AFETR","REV_AT_EPOCH":"7804","APOAPSIS":"548.239","FILE":"3520602","REF_FRAME":"TEME","EPHEMERIS_TYPE":"0","PERIAPSIS":"546.193","MEAN_MOTION_DDOT":"0.0000000000000","CENTER_NAME":"EARTH","MEAN_ANOMALY":"277.1507","TLE_LINE1":"1 47741U 21017V   22204.81940589  .00002264  00000-0  17087-3 0  9998","RA_OF_ASC_NODE":"39.2013","TLE_LINE2":"2 47741  53.0558  39.2013 0001477  82.9650 277.1507 15.06399177 78044","PERIOD":"95.592","MEAN_ELEMENT_THEORY":"SGP4","ECCENTRICITY":"0.00014770","MEAN_MOTION_DOT":"0.00002264","COUNTRY_CODE":"US","GP_ID":"208735587","SEMIMAJOR_AXIS":"6925.351","OBJECT_ID":"2021-017V","INCLINATION":"53.0558","ARG_OF_PERICENTER":"82.9650","NORAD_CAT_ID":"47741","RCS_SIZE":"LARGE","OBJECT_NAME":"STARLINK-2154","DECAY_DATE":null,"CLASSIFICATION_TYPE":"U","ELEMENT_SET_NO":"999","OBJECT_TYPE":"PAYLOAD","LAUNCH_DATE":"2021-03-04"}];
